IDEFIX & ARIANE 42P R/B 
1 27422U 02021B   26013.81767697  .00000210  00000+0  96505-4 0  9996
2 27422  98.5817 313.0984 0011814 354.8037   5.3021 14.30978303236178
AQUA                    
1 27424U 02022A   26014.19338718  .00000717  00000+0  15340-3 0  9998
2 27424  98.4080 340.6072 0002047  79.4950 292.1093 14.61819636260772
CZ-4B R/B               
1 27432U 02024C   26014.10453597  .00000025  00000+0  35517-4 0  9994
2 27432  98.8951  67.7558 0050276 176.9651 203.2444 14.14535511221524
MIDORI II (ADEOS-II)    
1 27597U 02056A   26014.19911387  .00000228  00000+0  10760-3 0  9993
2 27597  98.7679 332.3338 0001679 119.2101 240.9249 14.29234660202518
H-2A R/B                
1 27601U 02056E   26013.85227385  .00000256  00000+0  10444-3 0  9999
2 27601  98.3108 336.3390 0069683 325.9210  86.5090 14.33710522206259
CZ-4B R/B               
1 28059U 03049C   26014.26231491  .00000327  00000+0  86554-4 0  9994
2 28059  98.6814   7.0600 0048991  38.8921 321.5783 14.54947536178684
CZ-2C R/B               
1 28222U 04012C   26014.13299652  .00027818  00000+0  36466-3 0  9996
2 28222  97.7368  74.4895 0017037 148.7337 211.4935 15.58369430195763
SL-16 R/B               
1 28353U 04021B   26014.22033540 -.00000001  00000+0  24301-4 0  9995
2 28353  71.0029 346.8006 0003127 145.6580 214.4745 14.14592640115135
CZ-4B R/B               
1 28415U 04035C   26014.05015333  .00004836  00000+0  17704-3 0  9997
2 28415  97.3580  48.9704 0033383 159.7319 200.5254 15.27984774171563
CZ-2C R/B               
1 28480U 04046B   26013.72276522  .00000147  00000+0  70302-4 0  9998
2 28480  98.2000 292.1165 0138727 317.8567  41.2013 14.26965231100667
ARIANE 5 R/B            
1 28499U 04049H   26014.06162311  .00000910  00000+0  10682-3 0  9991
2 28499  98.2543 180.5079 0084626 167.3646 192.9716 14.85117898137686
CZ-2D R/B               
1 28738U 05024B   26014.04159378  .00020819  00000+0  30685-3 0  9993
2 28738  97.3629  27.3856 0004058 195.7668 164.3460 15.55421996131271
