CCSDS_OMM_VERS = 2.0
CREATION_DATE  = 
ORIGINATOR     = 

OBJECT_NAME    = IDEFIX & ARIANE 42P R/B
OBJECT_ID      = 2002-021B
CENTER_NAME    = EARTH
REF_FRAME      = TEME
TIME_SYSTEM    = UTC
MEAN_ELEMENT_THEORY = SGP/SGP4

EPOCH          = 2026-01-13T19:37:27.290208
MEAN_MOTION    = 14.30978303
ECCENTRICITY   = .00118143
INCLINATION    = 98.5817
RA_OF_ASC_NODE = 313.0984
ARG_OF_PERICENTER = 354.8037
MEAN_ANOMALY   = 5.3021

EPHEMERIS_TYPE = 0
CLASSIFICATION_TYPE = U
NORAD_CAT_ID   = 27422
ELEMENT_SET_NO = 999
REV_AT_EPOCH   = 23617
BSTAR          = .96505169E-4
MEAN_MOTION_DOT = .21E-5
MEAN_MOTION_DDOT = 0

CCSDS_OMM_VERS = 2.0
CREATION_DATE  = 
ORIGINATOR     = 

OBJECT_NAME    = AQUA
OBJECT_ID      = 2002-022A
CENTER_NAME    = EARTH
REF_FRAME      = TEME
TIME_SYSTEM    = UTC
MEAN_ELEMENT_THEORY = SGP/SGP4

EPOCH          = 2026-01-14T04:38:28.652352
MEAN_MOTION    = 14.61819636
ECCENTRICITY   = .00020474
INCLINATION    = 98.4080
RA_OF_ASC_NODE = 340.6072
ARG_OF_PERICENTER = 79.4950
MEAN_ANOMALY   = 292.1093

EPHEMERIS_TYPE = 0
CLASSIFICATION_TYPE = U
NORAD_CAT_ID   = 27424
ELEMENT_SET_NO = 999
REV_AT_EPOCH   = 26077
BSTAR          = .15340077E-3
MEAN_MOTION_DOT = .717E-5
MEAN_MOTION_DDOT = 0

CCSDS_OMM_VERS = 2.0
CREATION_DATE  = 
ORIGINATOR     = 

OBJECT_NAME    = CZ-4B R/B
OBJECT_ID      = 2002-024C
CENTER_NAME    = EARTH
REF_FRAME      = TEME
TIME_SYSTEM    = UTC
MEAN_ELEMENT_THEORY = SGP/SGP4

EPOCH          = 2026-01-14T02:30:31.907808
MEAN_MOTION    = 14.14535511
ECCENTRICITY   = .00502762
INCLINATION    = 98.8951
RA_OF_ASC_NODE = 67.7558
ARG_OF_PERICENTER = 176.9651
MEAN_ANOMALY   = 203.2444

EPHEMERIS_TYPE = 0
CLASSIFICATION_TYPE = U
NORAD_CAT_ID   = 27432
ELEMENT_SET_NO = 999
REV_AT_EPOCH   = 22152
BSTAR          = .35516696E-4
MEAN_MOTION_DOT = .25E-6
MEAN_MOTION_DDOT = 0

CCSDS_OMM_VERS = 2.0
CREATION_DATE  = 
ORIGINATOR     = 

OBJECT_NAME    = MIDORI II (ADEOS-II)
OBJECT_ID      = 2002-056A
CENTER_NAME    = EARTH
REF_FRAME      = TEME
TIME_SYSTEM    = UTC
MEAN_ELEMENT_THEORY = SGP/SGP4

EPOCH          = 2026-01-14T04:46:43.438368
MEAN_MOTION    = 14.29234660
ECCENTRICITY   = .0001679
INCLINATION    = 98.7679
RA_OF_ASC_NODE = 332.3338
ARG_OF_PERICENTER = 119.2101
MEAN_ANOMALY   = 240.9249

EPHEMERIS_TYPE = 0
CLASSIFICATION_TYPE = U
NORAD_CAT_ID   = 27597
ELEMENT_SET_NO = 999
REV_AT_EPOCH   = 20251
BSTAR          = .10759834E-3
MEAN_MOTION_DOT = .228E-5
MEAN_MOTION_DDOT = 0

CCSDS_OMM_VERS = 2.0
CREATION_DATE  = 
ORIGINATOR     = 

OBJECT_NAME    = H-2A R/B
OBJECT_ID      = 2002-056E
CENTER_NAME    = EARTH
REF_FRAME      = TEME
TIME_SYSTEM    = UTC
MEAN_ELEMENT_THEORY = SGP/SGP4

EPOCH          = 2026-01-13T20:27:16.460640
MEAN_MOTION    = 14.33710522
ECCENTRICITY   = .00696837
INCLINATION    = 98.3108
RA_OF_ASC_NODE = 336.3390
ARG_OF_PERICENTER = 325.9210
MEAN_ANOMALY   = 86.5090

EPHEMERIS_TYPE = 0
CLASSIFICATION_TYPE = U
NORAD_CAT_ID   = 27601
ELEMENT_SET_NO = 999
REV_AT_EPOCH   = 20625
BSTAR          = .10444113E-3
MEAN_MOTION_DOT = .256E-5
MEAN_MOTION_DDOT = 0

CCSDS_OMM_VERS = 2.0
CREATION_DATE  = 
ORIGINATOR     = 

OBJECT_NAME    = CZ-4B R/B
OBJECT_ID      = 2003-049C
CENTER_NAME    = EARTH
REF_FRAME      = TEME
TIME_SYSTEM    = UTC
MEAN_ELEMENT_THEORY = SGP/SGP4

EPOCH          = 2026-01-14T06:17:44.008224
MEAN_MOTION    = 14.54947536
ECCENTRICITY   = .0048991
INCLINATION    = 98.6814
RA_OF_ASC_NODE = 7.0600
ARG_OF_PERICENTER = 38.8921
MEAN_ANOMALY   = 321.5783

EPHEMERIS_TYPE = 0
CLASSIFICATION_TYPE = U
NORAD_CAT_ID   = 28059
ELEMENT_SET_NO = 999
REV_AT_EPOCH   = 17868
BSTAR          = .86554433E-4
MEAN_MOTION_DOT = .327E-5
MEAN_MOTION_DDOT = 0

CCSDS_OMM_VERS = 2.0
CREATION_DATE  = 
ORIGINATOR     = 

OBJECT_NAME    = CZ-2C R/B
OBJECT_ID      = 2004-012C
CENTER_NAME    = EARTH
REF_FRAME      = TEME
TIME_SYSTEM    = UTC
MEAN_ELEMENT_THEORY = SGP/SGP4

EPOCH          = 2026-01-14T03:11:30.899328
MEAN_MOTION    = 15.58369430
ECCENTRICITY   = .00170372
INCLINATION    = 97.7368
RA_OF_ASC_NODE = 74.4895
ARG_OF_PERICENTER = 148.7337
MEAN_ANOMALY   = 211.4935

EPHEMERIS_TYPE = 0
CLASSIFICATION_TYPE = U
NORAD_CAT_ID   = 28222
ELEMENT_SET_NO = 999
REV_AT_EPOCH   = 19576
BSTAR          = .36465925E-3
MEAN_MOTION_DOT = .27818E-3
MEAN_MOTION_DDOT = 0

CCSDS_OMM_VERS = 2.0
CREATION_DATE  = 
ORIGINATOR     = 

OBJECT_NAME    = SL-16 R/B
OBJECT_ID      = 2004-021B
CENTER_NAME    = EARTH
REF_FRAME      = TEME
TIME_SYSTEM    = UTC
MEAN_ELEMENT_THEORY = SGP/SGP4

EPOCH          = 2026-01-14T05:17:16.978560
MEAN_MOTION    = 14.14592640
ECCENTRICITY   = .00031271
INCLINATION    = 71.0029
RA_OF_ASC_NODE = 346.8006
ARG_OF_PERICENTER = 145.6580
MEAN_ANOMALY   = 214.4745

EPHEMERIS_TYPE = 0
CLASSIFICATION_TYPE = U
NORAD_CAT_ID   = 28353
ELEMENT_SET_NO = 999
REV_AT_EPOCH   = 11513
BSTAR          = .24300705E-4
MEAN_MOTION_DOT = -.1E-7
MEAN_MOTION_DDOT = 0

CCSDS_OMM_VERS = 2.0
CREATION_DATE  = 
ORIGINATOR     = 

OBJECT_NAME    = CZ-4B R/B
OBJECT_ID      = 2004-035C
CENTER_NAME    = EARTH
REF_FRAME      = TEME
TIME_SYSTEM    = UTC
MEAN_ELEMENT_THEORY = SGP/SGP4

EPOCH          = 2026-01-14T01:12:13.247712
MEAN_MOTION    = 15.27984774
ECCENTRICITY   = .0033383
INCLINATION    = 97.3580
RA_OF_ASC_NODE = 48.9704
ARG_OF_PERICENTER = 159.7319
MEAN_ANOMALY   = 200.5254

EPHEMERIS_TYPE = 0
CLASSIFICATION_TYPE = U
NORAD_CAT_ID   = 28415
ELEMENT_SET_NO = 999
REV_AT_EPOCH   = 17156
BSTAR          = .17704068E-3
MEAN_MOTION_DOT = .4836E-4
MEAN_MOTION_DDOT = 0

CCSDS_OMM_VERS = 2.0
CREATION_DATE  = 
ORIGINATOR     = 

OBJECT_NAME    = CZ-2C R/B
OBJECT_ID      = 2004-046B
CENTER_NAME    = EARTH
REF_FRAME      = TEME
TIME_SYSTEM    = UTC
MEAN_ELEMENT_THEORY = SGP/SGP4

EPOCH          = 2026-01-13T17:20:46.915008
MEAN_MOTION    = 14.26965231
ECCENTRICITY   = .01387277
INCLINATION    = 98.2000
RA_OF_ASC_NODE = 292.1165
ARG_OF_PERICENTER = 317.8567
MEAN_ANOMALY   = 41.2013

EPHEMERIS_TYPE = 0
CLASSIFICATION_TYPE = U
NORAD_CAT_ID   = 28480
ELEMENT_SET_NO = 999
REV_AT_EPOCH   = 10066
BSTAR          = .70301924E-4
MEAN_MOTION_DOT = .147E-5
MEAN_MOTION_DDOT = 0

CCSDS_OMM_VERS = 2.0
CREATION_DATE  = 
ORIGINATOR     = 

OBJECT_NAME    = ARIANE 5 R/B
OBJECT_ID      = 2004-049H
CENTER_NAME    = EARTH
REF_FRAME      = TEME
TIME_SYSTEM    = UTC
MEAN_ELEMENT_THEORY = SGP/SGP4

EPOCH          = 2026-01-14T01:28:44.236704
MEAN_MOTION    = 14.85117898
ECCENTRICITY   = .00846266
INCLINATION    = 98.2543
RA_OF_ASC_NODE = 180.5079
ARG_OF_PERICENTER = 167.3646
MEAN_ANOMALY   = 192.9716

EPHEMERIS_TYPE = 0
CLASSIFICATION_TYPE = U
NORAD_CAT_ID   = 28499
ELEMENT_SET_NO = 999
REV_AT_EPOCH   = 13768
BSTAR          = .10681591E-3
MEAN_MOTION_DOT = .91E-5
MEAN_MOTION_DDOT = 0

CCSDS_OMM_VERS = 2.0
CREATION_DATE  = 
ORIGINATOR     = 

OBJECT_NAME    = CZ-2D R/B
OBJECT_ID      = 2005-024B
CENTER_NAME    = EARTH
REF_FRAME      = TEME
TIME_SYSTEM    = UTC
MEAN_ELEMENT_THEORY = SGP/SGP4

EPOCH          = 2026-01-14T00:59:53.702592
MEAN_MOTION    = 15.55421996
ECCENTRICITY   = .00040582
INCLINATION    = 97.3629
RA_OF_ASC_NODE = 27.3856
ARG_OF_PERICENTER = 195.7668
MEAN_ANOMALY   = 164.3460

EPHEMERIS_TYPE = 0
CLASSIFICATION_TYPE = U
NORAD_CAT_ID   = 28738
ELEMENT_SET_NO = 999
REV_AT_EPOCH   = 13127
BSTAR          = .30684827E-3
MEAN_MOTION_DOT = .20819E-3
MEAN_MOTION_DDOT = 0

